{
    "links": {
        "self": "http://www.neowsapp.com/rest/v1/neo/3656411?api_key=iIulBulltgU6a56xZRHN4H3l9WmuAYTsLGpBGhQ2"
    },
    "id": "3656411",
    "neo_reference_id": "3656411",
    "name": "(2014 BS)",
    "designation": "2014 BS",
    "nasa_jpl_url": "http://ssd.jpl.nasa.gov/sbdb.cgi?sstr=3656411",
    "absolute_magnitude_h": 26.3,
    "estimated_diameter": {
        "kilometers": {
            "estimated_diameter_min": 0.0146067964,
            "estimated_diameter_max": 0.0326617897
        },
        "meters": {
            "estimated_diameter_min": 14.6067964271,
            "estimated_diameter_max": 32.6617897446
        },
        "miles": {
            "estimated_diameter_min": 0.0090762397,
            "estimated_diameter_max": 0.020295089
        },
        "feet": {
            "estimated_diameter_min": 47.92256199,
            "estimated_diameter_max": 107.1581062656
        }
    },
    "is_potentially_hazardous_asteroid": false,
    "close_approach_data": [
        {
            "close_approach_date": "1942-01-28",
            "close_approach_date_full": "1942-Jan-28 02:52",
            "epoch_date_close_approach": -881269680000,
            "relative_velocity": {
                "kilometers_per_second": "10.1631229723",
                "kilometers_per_hour": "36587.242700343",
                "miles_per_hour": "22733.889776777"
            },
            "miss_distance": {
                "astronomical": "0.326917244",
                "lunar": "127.170807916",
                "kilometers": "48906123.36867028",
                "miles": "30388855.911318664"
            },
            "orbiting_body": "Earth"
        },
        {
            "close_approach_date": "2007-01-11",
            "close_approach_date_full": "2007-Jan-11 19:40",
            "epoch_date_close_approach": 1168544400000,
            "relative_velocity": {
                "kilometers_per_second": "12.1680752937",
                "kilometers_per_hour": "43805.0710573214",
                "miles_per_hour": "27218.7676244784"
            },
            "miss_distance": {
                "astronomical": "0.3550027932",
                "lunar": "138.0960865548",
                "kilometers": "53107661.706770484",
                "miles": "32999570.7741573192"
            },
            "orbiting_body": "Earth"
        },
        {
            "close_approach_date": "2014-01-21",
            "close_approach_date_full": "2014-Jan-21 14:06",
            "epoch_date_close_approach": 1390313160000,
            "relative_velocity": {
                "kilometers_per_second": "6.0694106654",
                "kilometers_per_hour": "21849.8783953825",
                "miles_per_hour": "13576.6647173975"
            },
            "miss_distance": {
                "astronomical": "0.0534513136",
                "lunar": "20.7925609904",
                "kilometers": "7996202.663262032",
                "miles": "4968609.9374467616"
            },
            "orbiting_body": "Earth"
        },
        {
            "close_approach_date": "2021-01-28",
            "close_approach_date_full": "2021-Jan-28 15:16",
            "epoch_date_close_approach": 1611846960000,
            "relative_velocity": {
                "kilometers_per_second": "10.6505092515",
                "kilometers_per_hour": "38341.8333052639",
                "miles_per_hour": "23824.1241445958"
            },
            "miss_distance": {
                "astronomical": "0.3510101257",
                "lunar": "136.5429388973",
                "kilometers": "52510367.153152259",
                "miles": "32628429.1486048142"
            },
            "orbiting_body": "Earth"
        },
        {
            "close_approach_date": "2179-01-07",
            "close_approach_date_full": "2179-Jan-07 21:35",
            "epoch_date_close_approach": 6596026500000,
            "relative_velocity": {
                "kilometers_per_second": "16.0010662668",
                "kilometers_per_hour": "57603.8385603425",
                "miles_per_hour": "35792.7851321195"
            },
            "miss_distance": {
                "astronomical": "0.4968071389",
                "lunar": "193.2579770321",
                "kilometers": "74321289.780234143",
                "miles": "46181108.0230034534"
            },
            "orbiting_body": "Earth"
        }
    ],
    "orbital_data": {
        "orbit_id": "6",
        "orbit_determination_date": "2017-04-06 08:42:50",
        "first_observation_date": "2014-01-20",
        "last_observation_date": "2014-01-28",
        "data_arc_in_days": 8,
        "observations_used": 23,
        "orbit_uncertainty": "8",
        "minimum_orbit_intersection": ".0534512",
        "jupiter_tisserand_invariant": "5.087",
        "epoch_osculation": "2456679.5",
        "eccentricity": ".1762768493032731",
        "semi_major_axis": "1.257930238408614",
        "inclination": "10.84806292316156",
        "ascending_node_longitude": "299.348075786162",
        "orbital_period": "515.3274328646103",
        "perihelion_distance": "1.036186259338628",
        "perihelion_argument": "188.4140280659479",
        "aphelion_distance": "1.479674217478599",
        "perihelion_time": "2456685.484484670809",
        "mean_anomaly": "355.8193289468111",
        "mean_motion": ".6985849714982693",
        "equinox": "J2000",
        "orbit_class": {
            "orbit_class_type": "AMO",
            "orbit_class_description": "Near-Earth asteroid orbits similar to that of 1221 Amor",
            "orbit_class_range": "1.017 AU < q (perihelion) < 1.3 AU"
        }
    },
    "is_sentry_object": false
}